{
  "type": "FeatureCollection",
  "features": [
    {
      "type": "Feature",
      "properties": {
        "norad_id": 29994,
        "name": "FENGYUN 1C DEB",
        "group": "fengyun-1c-debris",
        "lat": 56.346072471539806,
        "lon": 9.900648703905667,
        "alt_km": 954.3916306625824,
        "timestamp": "2025-12-17T07:00:47.176889+00:00",
        "meta_object_name": "FENGYUN 1C DEB",
        "meta_object_id": "1999-025LU",
        "meta_epoch": "2025-12-16T17:35:03.744672",
        "meta_mean_motion": 14.02645119,
        "meta_eccentricity": 0.01296473,
        "meta_inclination": 98.8286,
        "meta_ra_of_asc_node": 22.8581,
        "meta_arg_of_pericenter": 202.4217,
        "meta_mean_anomaly": 272.121,
        "meta_ephemeris_type": 0,
        "meta_classification_type": "U",
        "meta_norad_cat_id": 29994,
        "meta_element_set_no": 999,
        "meta_rev_at_epoch": 96782,
        "meta_bstar": 3.2080185e-05,
        "meta_mean_motion_dot": 1e-07,
        "meta_mean_motion_ddot": 0,
        "tle_line1": "1 29994U 99025LU  25350.73268223  .00000010  00000+0  32080-4 0  9993",
        "tle_line2": "2 29994  98.8286  22.8581 0129647 202.4217 272.1210 14.02645119967829"
      },
      "geometry": {
        "type": "Point",
        "coordinates": [
          9.900648703905667,
          56.346072471539806
        ]
      }
    },
    {
      "type": "Feature",
      "properties": {
        "norad_id": 29996,
        "name": "FENGYUN 1C DEB",
        "group": "fengyun-1c-debris",
        "lat": -10.931150461357634,
        "lon": 30.63465008232318,
        "alt_km": 857.9305481289148,
        "timestamp": "2025-12-17T07:00:47.176899+00:00",
        "meta_object_name": "FENGYUN 1C DEB",
        "meta_object_id": "1999-025LW",
        "meta_epoch": "2025-12-17T00:32:52.207872",
        "meta_mean_motion": 14.09447815,
        "meta_eccentricity": 0.01313938,
        "meta_inclination": 99.3035,
        "meta_ra_of_asc_node": 28.5422,
        "meta_arg_of_pericenter": 76.0057,
        "meta_mean_anomaly": 348.4133,
        "meta_ephemeris_type": 0,
        "meta_classification_type": "U",
        "meta_norad_cat_id": 29996,
        "meta_element_set_no": 999,
        "meta_rev_at_epoch": 96197,
        "meta_bstar": 0.0013214158,
        "meta_mean_motion_dot": 2.454e-05,
        "meta_mean_motion_ddot": 0,
        "tle_line1": "1 29996U 99025LW  25351.02282648  .00002454  00000+0  13214-2 0  9995",
        "tle_line2": "2 29996  99.3035  28.5422 0131393  76.0057 348.4133 14.09447815961975"
      },
      "geometry": {
        "type": "Point",
        "coordinates": [
          30.63465008232318,
          -10.931150461357634
        ]
      }
    },
    {
      "type": "Feature",
      "properties": {
        "norad_id": 29997,
        "name": "FENGYUN 1C DEB",
        "group": "fengyun-1c-debris",
        "lat": -42.442286432265036,
        "lon": 173.39279200729618,
        "alt_km": 898.5403029583076,
        "timestamp": "2025-12-17T07:00:47.176910+00:00",
        "meta_object_name": "FENGYUN 1C DEB",
        "meta_object_id": "1999-025LX",
        "meta_epoch": "2025-12-16T23:21:47.241216",
        "meta_mean_motion": 14.00888616,
        "meta_eccentricity": 0.00801846,
        "meta_inclination": 98.8819,
        "meta_ra_of_asc_node": 1.3042,
        "meta_arg_of_pericenter": 315.5812,
        "meta_mean_anomaly": 101.6975,
        "meta_ephemeris_type": 0,
        "meta_classification_type": "U",
        "meta_norad_cat_id": 29997,
        "meta_element_set_no": 999,
        "meta_rev_at_epoch": 96449,
        "meta_bstar": 0.00078753936,
        "meta_mean_motion_dot": 1.167e-05,
        "meta_mean_motion_ddot": 0,
        "tle_line1": "1 29997U 99025LX  25350.97346344  .00001167  00000+0  78754-3 0  9994",
        "tle_line2": "2 29997  98.8819   1.3042 0080184 315.5812 101.6975 14.00888616964490"
      },
      "geometry": {
        "type": "Point",
        "coordinates": [
          173.39279200729618,
          -42.442286432265036
        ]
      }
    },
    {
      "type": "Feature",
      "properties": {
        "norad_id": 29998,
        "name": "FENGYUN 1C DEB",
        "group": "fengyun-1c-debris",
        "lat": -27.16993084817959,
        "lon": -132.83894414001517,
        "alt_km": 801.4008243661528,
        "timestamp": "2025-12-17T07:00:47.176920+00:00",
        "meta_object_name": "FENGYUN 1C DEB",
        "meta_object_id": "1999-025LY",
        "meta_epoch": "2025-12-16T23:19:14.509344",
        "meta_mean_motion": 14.28563993,
        "meta_eccentricity": 0.00049453,
        "meta_inclination": 99.3064,
        "meta_ra_of_asc_node": 51.6474,
        "meta_arg_of_pericenter": 285.13,
        "meta_mean_anomaly": 74.9332,
        "meta_ephemeris_type": 0,
        "meta_classification_type": "U",
        "meta_norad_cat_id": 29998,
        "meta_element_set_no": 999,
        "meta_rev_at_epoch": 97935,
        "meta_bstar": 0.00070294441,
        "meta_mean_motion_dot": 1.714e-05,
        "meta_mean_motion_ddot": 0,
        "tle_line1": "1 29998U 99025LY  25350.97169571  .00001714  00000+0  70294-3 0  9999",
        "tle_line2": "2 29998  99.3064  51.6474 0004945 285.1300  74.9332 14.28563993979359"
      },
      "geometry": {
        "type": "Point",
        "coordinates": [
          -132.83894414001517,
          -27.16993084817959
        ]
      }
    },
    {
      "type": "Feature",
      "properties": {
        "norad_id": 29999,
        "name": "FENGYUN 1C DEB",
        "group": "fengyun-1c-debris",
        "lat": -8.074828629409405,
        "lon": 154.19328781813638,
        "alt_km": 790.1388970475764,
        "timestamp": "2025-12-17T07:00:47.176930+00:00",
        "meta_object_name": "FENGYUN 1C DEB",
        "meta_object_id": "1999-025LZ",
        "meta_epoch": "2025-12-16T21:58:55.805952",
        "meta_mean_motion": 14.20140683,
        "meta_eccentricity": 0.01896653,
        "meta_inclination": 98.5765,
        "meta_ra_of_asc_node": 335.0551,
        "meta_arg_of_pericenter": 114.521,
        "meta_mean_anomaly": 308.7485,
        "meta_ephemeris_type": 0,
        "meta_classification_type": "U",
        "meta_norad_cat_id": 29999,
        "meta_element_set_no": 999,
        "meta_rev_at_epoch": 97783,
        "meta_bstar": 0.00025532703,
        "meta_mean_motion_dot": 6.1e-06,
        "meta_mean_motion_ddot": 0,
        "tle_line1": "1 29999U 99025LZ  25350.91592368  .00000610  00000+0  25533-3 0  9998",
        "tle_line2": "2 29999  98.5765 335.0551 0189665 114.5210 308.7485 14.20140683977839"
      },
      "geometry": {
        "type": "Point",
        "coordinates": [
          154.19328781813638,
          -8.074828629409405
        ]
      }
    },
    {
      "type": "Feature",
      "properties": {
        "norad_id": 30001,
        "name": "FENGYUN 1C DEB",
        "group": "fengyun-1c-debris",
        "lat": 73.57457811850142,
        "lon": 34.180205365119775,
        "alt_km": 729.5756850891321,
        "timestamp": "2025-12-17T07:00:47.176941+00:00",
        "meta_object_name": "FENGYUN 1C DEB",
        "meta_object_id": "1999-025MA",
        "meta_epoch": "2025-12-16T10:55:26.356224",
        "meta_mean_motion": 14.38642507,
        "meta_eccentricity": 0.00372894,
        "meta_inclination": 98.9601,
        "meta_ra_of_asc_node": 65.6636,
        "meta_arg_of_pericenter": 87.7232,
        "meta_mean_anomaly": 335.844,
        "meta_ephemeris_type": 0,
        "meta_classification_type": "U",
        "meta_norad_cat_id": 30001,
        "meta_element_set_no": 999,
        "meta_rev_at_epoch": 97485,
        "meta_bstar": 0.001854296,
        "meta_mean_motion_dot": 5.685e-05,
        "meta_mean_motion_ddot": 0,
        "tle_line1": "1 30001U 99025MA  25350.45516616  .00005685  00000+0  18543-2 0  9994",
        "tle_line2": "2 30001  98.9601  65.6636 0037289  87.7232 335.8440 14.38642507974859"
      },
      "geometry": {
        "type": "Point",
        "coordinates": [
          34.180205365119775,
          73.57457811850142
        ]
      }
    },
    {
      "type": "Feature",
      "properties": {
        "norad_id": 30003,
        "name": "FENGYUN 1C DEB",
        "group": "fengyun-1c-debris",
        "lat": 78.48768411367564,
        "lon": -157.82281473256515,
        "alt_km": 833.5454539228058,
        "timestamp": "2025-12-17T07:00:47.176952+00:00",
        "meta_object_name": "FENGYUN 1C DEB",
        "meta_object_id": "1999-025MC",
        "meta_epoch": "2025-12-16T22:09:22.681152",
        "meta_mean_motion": 13.85627974,
        "meta_eccentricity": 0.01435029,
        "meta_inclination": 99.577,
        "meta_ra_of_asc_node": 325.8136,
        "meta_arg_of_pericenter": 108.7997,
        "meta_mean_anomaly": 308.0627,
        "meta_ephemeris_type": 0,
        "meta_classification_type": "U",
        "meta_norad_cat_id": 30003,
        "meta_element_set_no": 999,
        "meta_rev_at_epoch": 95546,
        "meta_bstar": 0.00033375135,
        "meta_mean_motion_dot": 3.68e-06,
        "meta_mean_motion_ddot": 0,
        "tle_line1": "1 30003U 99025MC  25350.92317918  .00000368  00000+0  33375-3 0  9996",
        "tle_line2": "2 30003  99.5770 325.8136 0143502 108.7997 308.0627 13.85627974955466"
      },
      "geometry": {
        "type": "Point",
        "coordinates": [
          -157.82281473256515,
          78.48768411367564
        ]
      }
    }
  ]
}